2025-313Y               
1 67270U 25313Y   26008.53965816  .00011877  00000+0  55166-3 0  9994
2 67270  97.4123  85.8199 0015057 199.7516 160.3138 15.20053360  1677
2025-313Z               
1 67271U 25313Z   26008.53982985  .00005801  00000+0  27205-3 0  9994
2 67271  97.4118  85.8108 0015023 195.6256 164.4518 15.19955333  1677
2025-313AA              
1 67272U 25313AA  26008.53884588  .00015818  00000+0  72985-3 0  9999
2 67272  97.4123  85.8104 0014813 200.0380 160.0275 15.20218619  1678
2025-313AB              
1 67273U 25313AB  26008.53966662  .00004175  00000+0  19682-3 0  9993
2 67273  97.4136  85.8125 0013928 204.4953 155.5622 15.19956348  1677
2025-313AC              
1 67274U 25313AC  26008.53917853  .00008378  00000+0  39004-3 0  9991
2 67274  97.4112  85.8183 0014732 199.1958 160.8724 15.20079413  1678
2025-313AD              
1 67275U 25313AD  26008.47297727  .00008628  00000+0  40102-3 0  9995
2 67275  97.4086  85.7512 0013954 202.3850 157.6778 15.20133372  1664
2025-313AE              
1 67276U 25313AE  26008.47294894  .00008638  00000+0  40149-3 0  9990
2 67276  97.4091  85.7511 0013877 202.3658 157.6973 15.20137092  1660
2025-313AF              
1 67277U 25313AF  26008.53886111  .00007841  00000+0  36500-3 0  9998
2 67277  97.4094  85.8163 0013870 202.0359 158.0281 15.20111886  1677
2025-313AG              
1 67278U 25313AG  26008.47294031  .00008014  00000+0  37284-3 0  9999
2 67278  97.4096  85.7523 0013833 202.1263 157.9377 15.20126006  1677
2025-313AH              
1 67279U 25313AH  26008.47263841  .00009138  00000+0  42376-3 0  9991
2 67279  97.4109  85.7537 0014379 199.1905 160.8791 15.20188952  1662
2025-313AJ              
1 67280U 25313AJ  26008.53587445  .00006055  00000+0  27952-3 0  9997
2 67280  97.4176  85.8195 0013303 195.3334 164.7500 15.20507390  1672
2025-313AK              
1 67281U 25313AK  26008.53522539  .00006065  00000+0  27933-3 0  9991
2 67281  97.4059  85.8145 0012024 193.9971 166.0933 15.20598405  1670
